ORBCOMM FM06            
1 25118U 97084G   26116.94975253  .00001330  00000+0  39823-3 0  9999
2 25118  45.0142 299.3470 0000541  67.7391  88.2472 14.47431071486968
ORBCOMM FM04            
1 25159U 98007C   26116.76419500  .00001090  00000+0  41977-3 0  9994
2 25159 107.9614  63.5988 0039269  54.7479 305.7326 14.35633180469218
ORBCOMM FM19            
1 25415U 98046C   26116.09533333  .00000895  00000+0  33065-3 0  9990
2 25415  44.9929 131.1511 0002425   1.1166  45.6536 14.39389151449276
ORBCOMM FM20            
1 25416U 98046D   26116.74239442  .00000631  00000+0  25329-3 0  9999
2 25416  44.9926 135.4359 0001797 283.9634  76.1014 14.37986646449384
ORBCOMM FM27            
1 25481U 98053G   26116.53830233  .00000933  00000+0  34516-3 0  9994
2 25481  45.0048 220.6485 0001428 232.4441 127.6278 14.39041320442791
ORBCOMM FM32            
1 25982U 99065C   26116.22179634  .00000835  00000+0  32631-3 0  9998
2 25982  45.0160  59.1947 0004293 165.2444 194.8530 14.37053768379613
ORBCOMM FM109           
1 40086U 14040A   26116.86861297  .00000446  00000+0  13072-3 0  9999
2 40086  47.0044 334.1067 0001749 333.4749  26.6047 14.58789426626853
ORBCOMM FM114           
1 41179U 15081A   26116.61227020  .00000548  00000+0  15226-3 0  9998
2 41179  47.0045 245.8327 0002524 305.7737  54.2914 14.58799723550224
ORBCOMM FM110           
1 41182U 15081D   26116.53256994  .00000728  00000+0  19050-3 0  9994
2 41182  47.0018 245.6651 0003545 205.5046 154.5665 14.58820734550088
ORBCOMM FM118           
1 41183U 15081E   26116.77273050  .00000748  00000+0  19475-3 0  9996
2 41183  47.0038 244.8552 0003161 172.3845 187.7090 14.58818929550223
ORBCOMM FM112           
1 41184U 15081F   26116.50169613  .00000524  00000+0  14731-3 0  9999
2 41184  46.9975 154.6148 0002688 303.8667  56.1963 14.58814463551405
ORBCOMM FM113           
1 41185U 15081G   26116.82161199  .00000359  00000+0  11228-3 0  9990
2 41185  46.9994 153.4802 0002192 307.5991  52.4696 14.58800295551435
ORBCOMM FM108           
1 41187U 15081J   26116.92113751  .00000624  00000+0  16855-3 0  9990
2 41187  47.0053  64.5644 0003277 314.8362  45.2257 14.58791465552598
ORBCOMM FM117           
1 41188U 15081K   26116.81807653  .00000473  00000+0  13644-3 0  9995
2 41188  47.0020  63.7015 0003696 320.6516  39.4101 14.58789482552620
ORBCOMM FM116           
1 41189U 15081L   26116.52498992  .00000527  00000+0  14779-3 0  9996
2 41189  47.0010 154.8787 0002125 220.4641 139.6087 14.58811344551392
